[
  {
    "COMMENT": "GENERATED VIA SPACETRACK.ORG API",
    "ORIGINATOR": "18 SPCS",
    "NORAD_CAT_ID": "41240",
    "OBJECT_NAME": "JASON 3",
    "OBJECT_TYPE": "PAYLOAD",
    "CLASSIFICATION_TYPE": "U",
    "INTLDES": "16002A",
    "EPOCH": "2023-05-05 20:26:30",
    "EPOCH_MICROSECONDS": "529536",
    "MEAN_MOTION": "12.80930614",
    "ECCENTRICITY": "0.0007608",
    "INCLINATION": "66.0427",
    "RA_OF_ASC_NODE": "339.4485",
    "ARG_OF_PERICENTER": "273.1463",
    "MEAN_ANOMALY": "86.8682",
    "EPHEMERIS_TYPE": "0",
    "ELEMENT_SET_NO": "999",
    "REV_AT_EPOCH": "34120",
    "BSTAR": "0.00017989",
    "MEAN_MOTION_DOT": "-0.0000002",
    "MEAN_MOTION_DDOT": "0",
    "FILE": "3901993",
    "TLE_LINE0": "0 JASON 3",
    "TLE_LINE1": "1 41240U 16002A   23125.85174224 -.00000020  00000-0  17989-3 0  9996",
    "TLE_LINE2": "2 41240  66.0427 339.4485 0007608 273.1463  86.8682 12.80930614341203",
    "OBJECT_ID": "2016-002A",
    "OBJECT_NUMBER": "41240",
    "SEMIMAJOR_AXIS": "7715.868",
    "PERIOD": "112.418",
    "APOGEE": "1343.603",
    "PERIGEE": "1331.862",
    "DECAYED": "0"
  },
  {
    "COMMENT": "GENERATED VIA SPACETRACK.ORG API",
    "ORIGINATOR": "18 SPCS",
    "NORAD_CAT_ID": "41240",
    "OBJECT_NAME": "JASON 3",
    "OBJECT_TYPE": "PAYLOAD",
    "CLASSIFICATION_TYPE": "U",
    "INTLDES": "16002A",
    "EPOCH": "2023-05-06 15:10:48",
    "EPOCH_MICROSECONDS": "101088",
    "MEAN_MOTION": "12.80930716",
    "ECCENTRICITY": "0.0007603",
    "INCLINATION": "66.0426",
    "RA_OF_ASC_NODE": "337.8268",
    "ARG_OF_PERICENTER": "273.0792",
    "MEAN_ANOMALY": "86.9354",
    "EPHEMERIS_TYPE": "0",
    "ELEMENT_SET_NO": "999",
    "REV_AT_EPOCH": "34130",
    "BSTAR": "0.00018051",
    "MEAN_MOTION_DOT": "-0.00000019",
    "MEAN_MOTION_DDOT": "0",
    "FILE": "3902298",
    "TLE_LINE0": "0 JASON 3",
    "TLE_LINE1": "1 41240U 16002A   23126.63250117 -.00000019  00000-0  18051-3 0  9998",
    "TLE_LINE2": "2 41240  66.0426 337.8268 0007603 273.0792  86.9354 12.80930716341303",
    "OBJECT_ID": "2016-002A",
    "OBJECT_NUMBER": "41240",
    "SEMIMAJOR_AXIS": "7715.867",
    "PERIOD": "112.418",
    "APOGEE": "1343.599",
    "PERIGEE": "1331.866",
    "DECAYED": "0"
  },
  {
    "COMMENT": "GENERATED VIA SPACETRACK.ORG API",
    "ORIGINATOR": "18 SPCS",
    "NORAD_CAT_ID": "41240",
    "OBJECT_NAME": "JASON 3",
    "OBJECT_TYPE": "PAYLOAD",
    "CLASSIFICATION_TYPE": "U",
    "INTLDES": "16002A",
    "EPOCH": "2023-05-07 00:32:56",
    "EPOCH_MICROSECONDS": "885568",
    "MEAN_MOTION": "12.80930737",
    "ECCENTRICITY": "0.0007602",
    "INCLINATION": "66.0425",
    "RA_OF_ASC_NODE": "337.0159",
    "ARG_OF_PERICENTER": "273.0995",
    "MEAN_ANOMALY": "86.915",
    "EPHEMERIS_TYPE": "0",
    "ELEMENT_SET_NO": "999",
    "REV_AT_EPOCH": "34149",
    "BSTAR": "0.00018359",
    "MEAN_MOTION_DOT": "-0.00000019",
    "MEAN_MOTION_DDOT": "0",
    "FILE": "3902468",
    "TLE_LINE0": "0 JASON 3",
    "TLE_LINE1": "1 41240U 16002A   23127.02288062 -.00000019  00000-0  18359-3 0  9993",
    "TLE_LINE2": "2 41240  66.0425 337.0159 0007602 273.0995  86.9150 12.80930737341494",
    "OBJECT_ID": "2016-002A",
    "OBJECT_NUMBER": "41240",
    "SEMIMAJOR_AXIS": "7715.867",
    "PERIOD": "112.418",
    "APOGEE": "1343.598",
    "PERIGEE": "1331.867",
    "DECAYED": "0"
  },
  {
    "COMMENT": "GENERATED VIA SPACETRACK.ORG API",
    "ORIGINATOR": "18 SPCS",
    "NORAD_CAT_ID": "41240",
    "OBJECT_NAME": "JASON 3",
    "OBJECT_TYPE": "PAYLOAD",
    "CLASSIFICATION_TYPE": "U",
    "INTLDES": "16002A",
    "EPOCH": "2023-05-07 11:47:31",
    "EPOCH_MICROSECONDS": "425216",
    "MEAN_MOTION": "12.80930809",
    "ECCENTRICITY": "0.0007598",
    "INCLINATION": "66.0425",
    "RA_OF_ASC_NODE": "336.0429",
    "ARG_OF_PERICENTER": "273.0076",
    "MEAN_ANOMALY": "87.007",
    "EPHEMERIS_TYPE": "0",
    "ELEMENT_SET_NO": "999",
    "REV_AT_EPOCH": "34141",
    "BSTAR": "0.00020476",
    "MEAN_MOTION_DOT": "-0.00000014",
    "MEAN_MOTION_DDOT": "0",
    "FILE": "3903215",
    "TLE_LINE0": "0 JASON 3",
    "TLE_LINE1": "1 41240U 16002A   23127.49133594 -.00000014  00000-0  20476-3 0  9991",
    "TLE_LINE2": "2 41240  66.0425 336.0429 0007598 273.0076  87.0070 12.80930809341412",
    "OBJECT_ID": "2016-002A",
    "OBJECT_NUMBER": "41240",
    "SEMIMAJOR_AXIS": "7715.867",
    "PERIOD": "112.418",
    "APOGEE": "1343.594",
    "PERIGEE": "1331.869",
    "DECAYED": "0"
  },
  {
    "COMMENT": "GENERATED VIA SPACETRACK.ORG API",
    "ORIGINATOR": "18 SPCS",
    "NORAD_CAT_ID": "41240",
    "OBJECT_NAME": "JASON 3",
    "OBJECT_TYPE": "PAYLOAD",
    "CLASSIFICATION_TYPE": "U",
    "INTLDES": "16002A",
    "EPOCH": "2023-05-07 21:09:40",
    "EPOCH_MICROSECONDS": "209696",
    "MEAN_MOTION": "12.80930772",
    "ECCENTRICITY": "0.0007597",
    "INCLINATION": "66.0424",
    "RA_OF_ASC_NODE": "335.2321",
    "ARG_OF_PERICENTER": "272.8909",
    "MEAN_ANOMALY": "87.1237",
    "EPHEMERIS_TYPE": "0",
    "ELEMENT_SET_NO": "999",
    "REV_AT_EPOCH": "34146",
    "BSTAR": "0.00012702",
    "MEAN_MOTION_DOT": "-0.00000032",
    "MEAN_MOTION_DDOT": "0",
    "FILE": "3903413",
    "TLE_LINE0": "0 JASON 3",
    "TLE_LINE1": "1 41240U 16002A   23127.88171539 -.00000032  00000-0  12702-3 0  9998",
    "TLE_LINE2": "2 41240  66.0424 335.2321 0007597 272.8909  87.1237 12.80930772341464",
    "OBJECT_ID": "2016-002A",
    "OBJECT_NUMBER": "41240",
    "SEMIMAJOR_AXIS": "7715.867",
    "PERIOD": "112.418",
    "APOGEE": "1343.594",
    "PERIGEE": "1331.870",
    "DECAYED": "0"
  },
  {
    "COMMENT": "GENERATED VIA SPACETRACK.ORG API",
    "ORIGINATOR": "18 SPCS",
    "NORAD_CAT_ID": "41240",
    "OBJECT_NAME": "JASON 3",
    "OBJECT_TYPE": "PAYLOAD",
    "CLASSIFICATION_TYPE": "U",
    "INTLDES": "16002A",
    "EPOCH": "2023-05-08 04:39:23",
    "EPOCH_MICROSECONDS": "237280",
    "MEAN_MOTION": "12.80930778",
    "ECCENTRICITY": "0.0007596",
    "INCLINATION": "66.0424",
    "RA_OF_ASC_NODE": "334.5834",
    "ARG_OF_PERICENTER": "272.9107",
    "MEAN_ANOMALY": "87.1038",
    "EPHEMERIS_TYPE": "0",
    "ELEMENT_SET_NO": "999",
    "REV_AT_EPOCH": "34164",
    "BSTAR": "0.00011182",
    "MEAN_MOTION_DOT": "-0.00000035",
    "MEAN_MOTION_DDOT": "0",
    "FILE": "3903538",
    "TLE_LINE0": "0 JASON 3",
    "TLE_LINE1": "1 41240U 16002A   23128.19401895 -.00000035  00000-0  11182-3 0  9998",
    "TLE_LINE2": "2 41240  66.0424 334.5834 0007596 272.9107  87.1038 12.80930778341640",
    "OBJECT_ID": "2016-002A",
    "OBJECT_NUMBER": "41240",
    "SEMIMAJOR_AXIS": "7715.867",
    "PERIOD": "112.418",
    "APOGEE": "1343.593",
    "PERIGEE": "1331.871",
    "DECAYED": "0"
  },
  {
    "COMMENT": "GENERATED VIA SPACETRACK.ORG API",
    "ORIGINATOR": "18 SPCS",
    "NORAD_CAT_ID": "41240",
    "OBJECT_NAME": "JASON 3",
    "OBJECT_TYPE": "PAYLOAD",
    "CLASSIFICATION_TYPE": "U",
    "INTLDES": "16002A",
    "EPOCH": "2023-05-08 21:31:15",
    "EPOCH_MICROSECONDS": "45888",
    "MEAN_MOTION": "12.80930852",
    "ECCENTRICITY": "0.0007593",
    "INCLINATION": "66.0423",
    "RA_OF_ASC_NODE": "333.1239",
    "ARG_OF_PERICENTER": "272.8498",
    "MEAN_ANOMALY": "87.1648",
    "EPHEMERIS_TYPE": "0",
    "ELEMENT_SET_NO": "999",
    "REV_AT_EPOCH": "34159",
    "BSTAR": "0.00014428",
    "MEAN_MOTION_DOT": "-0.00000028",
    "MEAN_MOTION_DDOT": "0",
    "FILE": "3904305",
    "TLE_LINE0": "0 JASON 3",
    "TLE_LINE1": "1 41240U 16002A   23128.89670192 -.00000028  00000-0  14428-3 0  9991",
    "TLE_LINE2": "2 41240  66.0423 333.1239 0007593 272.8498  87.1648 12.80930852341596",
    "OBJECT_ID": "2016-002A",
    "OBJECT_NUMBER": "41240",
    "SEMIMAJOR_AXIS": "7715.867",
    "PERIOD": "112.418",
    "APOGEE": "1343.590",
    "PERIGEE": "1331.873",
    "DECAYED": "0"
  },
  {
    "COMMENT": "GENERATED VIA SPACETRACK.ORG API",
    "ORIGINATOR": "18 SPCS",
    "NORAD_CAT_ID": "41240",
    "OBJECT_NAME": "JASON 3",
    "OBJECT_TYPE": "PAYLOAD",
    "CLASSIFICATION_TYPE": "U",
    "INTLDES": "16002A",
    "EPOCH": "2023-05-09 05:00:58",
    "EPOCH_MICROSECONDS": "71744",
    "MEAN_MOTION": "12.80930865",
    "ECCENTRICITY": "0.0007591",
    "INCLINATION": "66.0422",
    "RA_OF_ASC_NODE": "332.4752",
    "ARG_OF_PERICENTER": "272.8186",
    "MEAN_ANOMALY": "87.1961",
    "EPHEMERIS_TYPE": "0",
    "ELEMENT_SET_NO": "999",
    "REV_AT_EPOCH": "34177",
    "BSTAR": "0.00012632",
    "MEAN_MOTION_DOT": "-0.00000032",
    "MEAN_MOTION_DDOT": "0",
    "FILE": "3904356",
    "TLE_LINE0": "0 JASON 3",
    "TLE_LINE1": "1 41240U 16002A   23129.20900546 -.00000032  00000-0  12632-3 0  9996",
    "TLE_LINE2": "2 41240  66.0422 332.4752 0007591 272.8186  87.1961 12.80930865341771",
    "OBJECT_ID": "2016-002A",
    "OBJECT_NUMBER": "41240",
    "SEMIMAJOR_AXIS": "7715.867",
    "PERIOD": "112.418",
    "APOGEE": "1343.589",
    "PERIGEE": "1331.875",
    "DECAYED": "0"
  },
  {
    "COMMENT": "GENERATED VIA SPACETRACK.ORG API",
    "ORIGINATOR": "18 SPCS",
    "NORAD_CAT_ID": "41240",
    "OBJECT_NAME": "JASON 3",
    "OBJECT_TYPE": "PAYLOAD",
    "CLASSIFICATION_TYPE": "U",
    "INTLDES": "16002A",
    "EPOCH": "2023-05-09 14:23:06",
    "EPOCH_MICROSECONDS": "853632",
    "MEAN_MOTION": "12.80930872",
    "ECCENTRICITY": "0.000759",
    "INCLINATION": "66.0421",
    "RA_OF_ASC_NODE": "331.6643",
    "ARG_OF_PERICENTER": "272.7779",
    "MEAN_ANOMALY": "87.2367",
    "EPHEMERIS_TYPE": "0",
    "ELEMENT_SET_NO": "999",
    "REV_AT_EPOCH": "34168",
    "BSTAR": "0.00010076",
    "MEAN_MOTION_DOT": "-0.00000038",
    "MEAN_MOTION_DDOT": "0",
    "FILE": "3904553",
    "TLE_LINE0": "0 JASON 3",
    "TLE_LINE1": "1 41240U 16002A   23129.59938488 -.00000038  00000-0  10076-3 0  9990",
    "TLE_LINE2": "2 41240  66.0421 331.6643 0007590 272.7779  87.2367 12.80930872341685",
    "OBJECT_ID": "2016-002A",
    "OBJECT_NUMBER": "41240",
    "SEMIMAJOR_AXIS": "7715.867",
    "PERIOD": "112.418",
    "APOGEE": "1343.588",
    "PERIGEE": "1331.875",
    "DECAYED": "0"
  }
]